COMMENT,ORIGINATOR,NORAD_CAT_ID,OBJECT_NAME,OBJECT_TYPE,CLASSIFICATION_TYPE,INTLDES,EPOCH,EPOCH_MICROSECONDS,MEAN_MOTION,ECCENTRICITY,INCLINATION,RA_OF_ASC_NODE,ARG_OF_PERICENTER,MEAN_ANOMALY,EPHEMERIS_TYPE,ELEMENT_SET_NO,REV_AT_EPOCH,BSTAR,MEAN_MOTION_DOT,MEAN_MOTION_DDOT,FILE,TLE_LINE0,TLE_LINE1,TLE_LINE2,OBJECT_ID,OBJECT_NUMBER,SEMIMAJOR_AXIS,PERIOD,APOGEE,PERIGEE,DECAYED
"GENERATED VIA SPACETRACK.ORG API","18 SPCS","55101","SPACEBEE-159","PAYLOAD","U","23001CW","2023-10-15 03:25:49","189152","15.26114419","0.0013266","97.4619","347.6775","304.1768","55.8212","0","999","4336","0.0014696","0.00038093","0","4034442","0 SPACEBEE-159","1 55101U 23001CW  23288.14293043  .00038093  00000-0  14696-2 0  9998","2 55101  97.4619 347.6775 0013266 304.1768  55.8212 15.26114419 43369","2023-001CW","55101","6865.578","94.357","496.551","478.335","0"
"GENERATED VIA SPACETRACK.ORG API","18 SPCS","55101","SPACEBEE-159","PAYLOAD","U","23001CW","2023-10-15 14:26:44","365632","15.26140178","0.0013264","97.4617","348.1357","302.3541","57.6413","0","999","4343","0.0012287","0.00031835","0","4034787","0 SPACEBEE-159","1 55101U 23001CW  23288.60190238  .00031835  00000-0  12287-2 0  9992","2 55101  97.4617 348.1357 0013264 302.3541  57.6413 15.26140178 43438","2023-001CW","55101","6865.501","94.356","496.472","478.259","0"
"GENERATED VIA SPACETRACK.ORG API","18 SPCS","55101","SPACEBEE-159","PAYLOAD","U","23001CW","2023-10-15 16:01:09","322464","15.261446","0.0013268","97.4616","348.2011","302.086","57.9089","0","999","4344","0.0012292","0.00031852","0","4035078","0 SPACEBEE-159","1 55101U 23001CW  23288.66746901  .00031852  00000-0  12292-2 0  9997","2 55101  97.4616 348.2011 0013268 302.0860  57.9089 15.26144600 43447","2023-001CW","55101","6865.488","94.355","496.462","478.243","0"
"GENERATED VIA SPACETRACK.ORG API","18 SPCS","55101","SPACEBEE-159","PAYLOAD","U","23001CW","2023-10-16 03:02:03","642720","15.26174684","0.0013278","97.4614","348.6593","300.3677","59.6248","0","999","4351","0.0013155","0.00034135","0","4035512","0 SPACEBEE-159","1 55101U 23001CW  23289.12643105  .00034135  00000-0  13155-2 0  9997","2 55101  97.4614 348.6593 0013278 300.3677  59.6248 15.26174684 43511","2023-001CW","55101","6865.397","94.354","496.378","478.146","0"
"GENERATED VIA SPACETRACK.ORG API","18 SPCS","55101","SPACEBEE-159","PAYLOAD","U","23001CW","2023-10-16 09:19:42","916224","15.26190758","0.0013262","97.4615","348.9211","299.3086","60.6827","0","999","4355","0.0013138","0.00034107","0","4036830","0 SPACEBEE-159","1 55101U 23001CW  23289.38869116  .00034107  00000-0  13138-2 0  9997","2 55101  97.4615 348.9211 0013262 299.3086  60.6827 15.26190758 43555","2023-001CW","55101","6865.349","94.353","496.319","478.109","0"
"GENERATED VIA SPACETRACK.ORG API","18 SPCS","55101","SPACEBEE-159","PAYLOAD","U","23001CW","2023-10-16 17:11:46","694688","15.26209175","0.0013242","97.461","349.248","298.0925","61.8974","0","999","4360","0.001197","0.00031072","0","4037312","0 SPACEBEE-159","1 55101U 23001CW  23289.71651267  .00031072  00000-0  11970-2 0  9990","2 55101  97.4610 349.2480 0013242 298.0925  61.8974 15.26209175 43604","2023-001CW","55101","6865.294","94.351","496.250","478.068","0"
"GENERATED VIA SPACETRACK.ORG API","18 SPCS","55101","SPACEBEE-159","PAYLOAD","U","23001CW","2023-10-17 10:30:17","641152","15.26252365","0.0013257","97.4608","349.9675","295.7912","64.1958","0","999","4371","0.0011139","0.0002894","0","4038796","0 SPACEBEE-159","1 55101U 23001CW  23290.43770418  .00028940  00000-0  11139-2 0  9998","2 55101  97.4608 349.9675 0013257 295.7912  64.1958 15.26252365 43719","2023-001CW","55101","6865.164","94.349","496.131","477.928","0"
"GENERATED VIA SPACETRACK.ORG API","18 SPCS","55101","SPACEBEE-159","PAYLOAD","U","23001CW","2023-10-17 10:30:17","641152","15.26252365","0.0013257","97.4608","349.9675","295.7912","64.1958","0","999","4371","0.0011139","0.0002894","0","4039107","0 SPACEBEE-159","1 55101U 23001CW  23290.43770418  .00028940  00000-0  11139-2 0  9998","2 55101  97.4608 349.9675 0013257 295.7912  64.1958 15.26252365 43719","2023-001CW","55101","6865.164","94.349","496.131","477.928","0"
"GENERATED VIA SPACETRACK.ORG API","18 SPCS","55101","SPACEBEE-159","PAYLOAD","U","23001CW","2023-10-18 02:14:22","511904","15.26290943","0.0013214","97.4606","350.6227","293.1863","66.7983","0","999","4381","0.0011961","0.00031126","0","4040140","0 SPACEBEE-159","1 55101U 23001CW  23291.09331611  .00031126  00000-0  11961-2 0  9992","2 55101  97.4606 350.6227 0013214 293.1863  66.7983 15.26290943 43810","2023-001CW","55101","6865.049","94.346","495.985","477.842","0"
"GENERATED VIA SPACETRACK.ORG API","18 SPCS","55101","SPACEBEE-159","PAYLOAD","U","23001CW","2023-10-18 10:06:24","379200","15.2630854","0.001318","97.4604","350.95","291.6225","68.3609","0","999","4386","0.0010964","0.0002853","0","4040456","0 SPACEBEE-159","1 55101U 23001CW  23291.42111550  .00028530  00000-0  10964-2 0  9994","2 55101  97.4604 350.9500 0013180 291.6225  68.3609 15.26308540 43863","2023-001CW","55101","6864.996","94.345","495.909","477.813","0"
"GENERATED VIA SPACETRACK.ORG API","18 SPCS","55101","SPACEBEE-159","PAYLOAD","U","23001CW","2023-10-19 03:24:51","119712","15.26363884","0.0013202","97.4603","351.67","288.9433","71.0374","0","999","4397","0.0015236","0.00039801","0","4040749","0 SPACEBEE-159","1 55101U 23001CW  23292.14225833  .00039801  00000-0  15236-2 0  9994","2 55101  97.4603 351.6700 0013202 288.9433  71.0374 15.26363884 43971","2023-001CW","55101","6864.830","94.342","495.758","477.632","0"
"GENERATED VIA SPACETRACK.ORG API","18 SPCS","55101","SPACEBEE-159","PAYLOAD","U","23001CW","2023-10-19 03:24:51","119712","15.26363884","0.0013202","97.4603","351.67","288.9433","71.0374","0","999","4397","0.0015236","0.00039801","0","4042363","0 SPACEBEE-159","1 55101U 23001CW  23292.14225833  .00039801  00000-0  15236-2 0  9994","2 55101  97.4603 351.6700 0013202 288.9433  71.0374 15.26363884 43971","2023-001CW","55101","6864.830","94.342","495.758","477.632","0"
"GENERATED VIA SPACETRACK.ORG API","18 SPCS","55101","SPACEBEE-159","PAYLOAD","U","23001CW","2023-10-19 20:43:15","544704","15.26420806","0.0013221","97.4603","352.39","286.1201","73.8582","0","999","4408","0.0015541","0.00040674","0","4042947","0 SPACEBEE-159","1 55101U 23001CW  23292.86337436  .00040674  00000-0  15541-2 0  9995","2 55101  97.4603 352.3900 0013221 286.1201  73.8582 15.26420806 44087","2023-001CW","55101","6864.659","94.338","495.600","477.449","0"
"GENERATED VIA SPACETRACK.ORG API","18 SPCS","55101","SPACEBEE-159","PAYLOAD","U","23001CW","2023-10-20 09:18:26","457408","15.26455874","0.0013191","97.4608","352.9139","284.0619","75.9153","0","999","4416","0.0012953","0.00033893","0","4044198","0 SPACEBEE-159","1 55101U 23001CW  23293.38780622  .00033893  00000-0  12953-2 0  9991","2 55101  97.4608 352.9139 0013191 284.0619  75.9153 15.26455874 44167","2023-001CW","55101","6864.554","94.336","495.474","477.364","0"
"GENERATED VIA SPACETRACK.ORG API","18 SPCS","55101","SPACEBEE-159","PAYLOAD","U","23001CW","2023-10-20 09:18:26","457408","15.26455874","0.0013191","97.4608","352.9139","284.0619","75.9153","0","999","4416","0.0012953","0.00033893","0","4044291","0 SPACEBEE-159","1 55101U 23001CW  23293.38780622  .00033893  00000-0  12953-2 0  9991","2 55101  97.4608 352.9139 0013191 284.0619  75.9153 15.26455874 44167","2023-001CW","55101","6864.554","94.336","495.474","477.364","0"
"GENERATED VIA SPACETRACK.ORG API","18 SPCS","55101","SPACEBEE-159","PAYLOAD","U","23001CW","2023-10-21 10:28:45","70464","15.26534243","0.0013058","97.461","353.9608","280.082","79.8945","0","999","4432","0.0015329","0.00040251","0","4045993","0 SPACEBEE-159","1 55101U 23001CW  23294.43663276  .00040251  00000-0  15329-2 0  9999","2 55101  97.4610 353.9608 0013058 280.0820  79.8945 15.26534243 44322","2023-001CW","55101","6864.319","94.331","495.148","477.221","0"
"GENERATED VIA SPACETRACK.ORG API","18 SPCS","55101","SPACEBEE-159","PAYLOAD","U","23001CW","2023-10-21 10:28:45","70464","15.26534243","0.0013058","97.461","353.9608","280.082","79.8945","0","999","4432","0.0015329","0.00040251","0","4046008","0 SPACEBEE-159","1 55101U 23001CW  23294.43663276  .00040251  00000-0  15329-2 0  9999","2 55101  97.4610 353.9608 0013058 280.0820  79.8945 15.26534243 44322","2023-001CW","55101","6864.319","94.331","495.148","477.221","0"
"GENERATED VIA SPACETRACK.ORG API","18 SPCS","55101","SPACEBEE-159","PAYLOAD","U","23001CW","2023-10-21 21:29:29","205024","15.26562418","0.001308","97.461","354.4189","278.434","81.5416","0","999","4439","0.0011418","0.00029947","0","4046563","0 SPACEBEE-159","1 55101U 23001CW  23294.89547691  .00029947  00000-0  11418-2 0  9995","2 55101  97.4610 354.4189 0013080 278.4340  81.5416 15.26562418 44390","2023-001CW","55101","6864.235","94.330","495.078","477.121","0"
"GENERATED VIA SPACETRACK.ORG API","18 SPCS","55101","SPACEBEE-159","PAYLOAD","U","23001CW","2023-10-22 10:04:35","741568","15.26596686","0.0013076","97.461","354.9427","276.3677","83.6073","0","999","4447","0.00091014","0.00023862","0","4047885","0 SPACEBEE-159","1 55101U 23001CW  23295.41985812  .00023862  00000-0  91014-3 0  9996","2 55101  97.4610 354.9427 0013076 276.3677  83.6073 15.26596686 44470","2023-001CW","55101","6864.132","94.327","494.973","477.022","0"
"GENERATED VIA SPACETRACK.ORG API","18 SPCS","55101","SPACEBEE-159","PAYLOAD","U","23001CW","2023-10-22 10:04:35","741568","15.26596686","0.0013076","97.461","354.9427","276.3677","83.6073","0","999","4447","0.00091014","0.00023862","0","4047923","0 SPACEBEE-159","1 55101U 23001CW  23295.41985812  .00023862  00000-0  91014-3 0  9996","2 55101  97.4610 354.9427 0013076 276.3677  83.6073 15.26596686 44470","2023-001CW","55101","6864.132","94.327","494.973","477.022","0"
